QIANFAN-1               
1 60379U 24140A   25354.17315473  .00000083  00000+0  10975-3 0  9991
2 60379  88.9767 298.5109 0016650 187.7439 172.3457 13.50979198 68356
QIANFAN-2               
1 60380U 24140B   25354.20212713  .00000069  00000+0  88719-4 0  9996
2 60380  88.9754 298.3462 0012887 157.1207 203.0521 13.50982870 68418
QIANFAN-3               
1 60381U 24140C   25354.13622493  .00000076  00000+0  98567-4 0  9999
2 60381  88.9746 298.4851 0013559 170.5872 189.5536 13.50983392 68310
QIANFAN-4               
1 60382U 24140D   25354.11142593  .00000078  00000+0  10255-3 0  9995
2 60382  88.9771 298.3872 0013011 160.1183 200.0478 13.50979137 68433
QIANFAN-5               
1 60383U 24140E   25354.16092534  .00000071  00000+0  90717-4 0  9995
2 60383  88.9746 298.5080 0014460 182.7810 177.3263 13.50981146 68302
QIANFAN-6               
1 60384U 24140F   25354.10745161  .00000073  00000+0  93760-4 0  9994
2 60384  88.9772 298.2617 0012941 166.1157 194.0353 13.50981436 68495
QIANFAN-7               
1 60385U 24140G   25354.10410272  .00000499  00000+0  19640-3 0  9993
2 60385  88.9788 292.8563 0016319  23.8826 336.3122 14.27658770 71449
QIANFAN-8               
1 60386U 24140H   25354.18978993  .00000071  00000+0  90631-4 0  9997
2 60386  88.9774 298.4908 0016299 169.8913 190.2569 13.50979394 68356
